<?xml version="1.0" encoding="UTF-8" standalone="no" ?>
<gpx xmlns:wptx1="http://www.garmin.com/xmlschemas/WaypointExtension/v1" xsi:schemaLocation="http://www.topografix.com/GPX/1/1 http://www.topografix.com/GPX/1/1/gpx.xsd http://www.garmin.com/xmlschemas/GpxExtensions/v3 http://www.garmin.com/xmlschemas/GpxExtensionsv3.xsd http://www.garmin.com/xmlschemas/TrackPointExtension/v1 http://www.garmin.com/xmlschemas/TrackPointExtensionv1.xsd http://www.garmin.com/xmlschemas/WaypointExtension/v1 http://www.garmin.com/xmlschemas/WaypointExtensionv1.xsd http://www.qlandkarte.org/xmlschemas/v1.1 http://www.qlandkarte.org/xmlschemas/v1.1/ql-extensions.xsd http://www.cluetrust.com/XML/GPXDATA/1/0 http://www.cluetrust.com/Schemas/gpxdata10.xsd" xmlns:gpxx="http://www.garmin.com/xmlschemas/GpxExtensions/v3" xmlns:rmc="urn:net:trekbuddy:1.0:nmea:rmc" version="1.1" creator="QMapShack 1.16.1 http://www.qlandkarte.org/" xmlns="http://www.topografix.com/GPX/1/1" xmlns:gpxtpx="http://www.garmin.com/xmlschemas/TrackPointExtension/v1" xmlns:tp1="http://www.garmin.com/xmlschemas/TrackPointExtension/v1" xmlns:xsi="http://www.w3.org/2001/XMLSchema-instance" xmlns:ql="http://www.qlandkarte.org/xmlschemas/v1.1" xmlns:gpxdata="http://www.cluetrust.com/XML/GPXDATA/1/0">
 <metadata>
  <name>Semiliege2025</name>
  <time>2025-10-19T20:05:23.073Z</time>
 </metadata>
 <trk>
  <name>Semi-Marathon de la Province de Lièche</name>
  <type>running</type>
  <extensions>
   <ql:key>a1ee4b27ee7b908e547163b9fd0ac78c</ql:key>
   <ql:flags>0</ql:flags>
   <gpxx:TrackExtension>
    <gpxx:DisplayColor>Blue</gpxx:DisplayColor>
   </gpxx:TrackExtension>
  </extensions>
  <trkseg>
   <trkpt lon="5.62133500" lat="50.65382400">
    <extensions>
     <ql:flags>16</ql:flags>
     <ql:activity>0</ql:activity>
    </extensions>
   </trkpt>
   <trkpt lon="5.62138600" lat="50.65384100">
    <extensions>
     <ql:flags>0</ql:flags>
     <ql:activity>0</ql:activity>
    </extensions>
   </trkpt>
   <trkpt lon="5.62144500" lat="50.65383100">
    <extensions>
     <ql:flags>0</ql:flags>
     <ql:activity>0</ql:activity>
    </extensions>
   </trkpt>
   <trkpt lon="5.62160100" lat="50.65389100">
    <extensions>
     <ql:flags>0</ql:flags>
     <ql:activity>0</ql:activity>
    </extensions>
   </trkpt>
   <trkpt lon="5.62159200" lat="50.65396600">
    <extensions>
     <ql:flags>0</ql:flags>
     <ql:activity>0</ql:activity>
    </extensions>
   </trkpt>
   <trkpt lon="5.62150200" lat="50.65401100">
    <extensions>
     <ql:flags>0</ql:flags>
     <ql:activity>0</ql:activity>
    </extensions>
   </trkpt>
   <trkpt lon="5.62143500" lat="50.65401200">
    <extensions>
     <ql:flags>0</ql:flags>
     <ql:activity>0</ql:activity>
    </extensions>
   </trkpt>
   <trkpt lon="5.62018600" lat="50.65374600">
    <extensions>
     <ql:flags>0</ql:flags>
     <ql:activity>0</ql:activity>
    </extensions>
   </trkpt>
   <trkpt lon="5.61988000" lat="50.65364700">
    <extensions>
     <ql:flags>0</ql:flags>
     <ql:activity>0</ql:activity>
    </extensions>
   </trkpt>
   <trkpt lon="5.61948300" lat="50.65356500">
    <extensions>
     <ql:flags>0</ql:flags>
     <ql:activity>0</ql:activity>
    </extensions>
   </trkpt>
   <trkpt lon="5.61935900" lat="50.65350500">
    <extensions>
     <ql:flags>0</ql:flags>
     <ql:activity>0</ql:activity>
    </extensions>
   </trkpt>
   <trkpt lon="5.61934400" lat="50.65347600">
    <extensions>
     <ql:flags>0</ql:flags>
     <ql:activity>0</ql:activity>
    </extensions>
   </trkpt>
   <trkpt lon="5.61942700" lat="50.65341500">
    <extensions>
     <ql:flags>0</ql:flags>
     <ql:activity>0</ql:activity>
    </extensions>
   </trkpt>
   <trkpt lon="5.61957200" lat="50.65340800">
    <extensions>
     <ql:flags>0</ql:flags>
     <ql:activity>0</ql:activity>
    </extensions>
   </trkpt>
   <trkpt lon="5.62040300" lat="50.65344000">
    <extensions>
     <ql:flags>0</ql:flags>
     <ql:activity>0</ql:activity>
    </extensions>
   </trkpt>
   <trkpt lon="5.62158000" lat="50.65339800">
    <extensions>
     <ql:flags>0</ql:flags>
     <ql:activity>0</ql:activity>
    </extensions>
   </trkpt>
   <trkpt lon="5.62182200" lat="50.65334500">
    <extensions>
     <ql:flags>0</ql:flags>
     <ql:activity>0</ql:activity>
    </extensions>
   </trkpt>
   <trkpt lon="5.62307300" lat="50.65326900">
    <extensions>
     <ql:flags>0</ql:flags>
     <ql:activity>0</ql:activity>
    </extensions>
   </trkpt>
   <trkpt lon="5.62340700" lat="50.65329000">
    <extensions>
     <ql:flags>0</ql:flags>
     <ql:activity>0</ql:activity>
    </extensions>
   </trkpt>
   <trkpt lon="5.62351800" lat="50.65331500">
    <extensions>
     <ql:flags>0</ql:flags>
     <ql:activity>0</ql:activity>
    </extensions>
   </trkpt>
   <trkpt lon="5.62373400" lat="50.65344200">
    <extensions>
     <ql:flags>0</ql:flags>
     <ql:activity>0</ql:activity>
    </extensions>
   </trkpt>
   <trkpt lon="5.62383600" lat="50.65359100">
    <extensions>
     <ql:flags>0</ql:flags>
     <ql:activity>0</ql:activity>
    </extensions>
   </trkpt>
   <trkpt lon="5.62381100" lat="50.65368000">
    <extensions>
     <ql:flags>0</ql:flags>
     <ql:activity>0</ql:activity>
    </extensions>
   </trkpt>
   <trkpt lon="5.62372700" lat="50.65374400">
    <extensions>
     <ql:flags>0</ql:flags>
     <ql:activity>0</ql:activity>
    </extensions>
   </trkpt>
   <trkpt lon="5.62346500" lat="50.65383900">
    <extensions>
     <ql:flags>0</ql:flags>
     <ql:activity>0</ql:activity>
    </extensions>
   </trkpt>
   <trkpt lon="5.62316300" lat="50.65398600">
    <extensions>
     <ql:flags>0</ql:flags>
     <ql:activity>0</ql:activity>
    </extensions>
   </trkpt>
   <trkpt lon="5.62296700" lat="50.65412200">
    <extensions>
     <ql:flags>0</ql:flags>
     <ql:activity>0</ql:activity>
    </extensions>
   </trkpt>
   <trkpt lon="5.62272000" lat="50.65441800">
    <extensions>
     <ql:flags>0</ql:flags>
     <ql:activity>0</ql:activity>
    </extensions>
   </trkpt>
   <trkpt lon="5.62239300" lat="50.65491800">
    <extensions>
     <ql:flags>0</ql:flags>
     <ql:activity>0</ql:activity>
    </extensions>
   </trkpt>
   <trkpt lon="5.62224700" lat="50.65520200">
    <extensions>
     <ql:flags>0</ql:flags>
     <ql:activity>0</ql:activity>
    </extensions>
   </trkpt>
   <trkpt lon="5.62218400" lat="50.65528000">
    <extensions>
     <ql:flags>0</ql:flags>
     <ql:activity>0</ql:activity>
    </extensions>
   </trkpt>
   <trkpt lon="5.62208000" lat="50.65533900">
    <extensions>
     <ql:flags>0</ql:flags>
     <ql:activity>0</ql:activity>
    </extensions>
   </trkpt>
   <trkpt lon="5.62199900" lat="50.65535300">
    <extensions>
     <ql:flags>0</ql:flags>
     <ql:activity>0</ql:activity>
    </extensions>
   </trkpt>
   <trkpt lon="5.62185000" lat="50.65534300">
    <extensions>
     <ql:flags>0</ql:flags>
     <ql:activity>0</ql:activity>
    </extensions>
   </trkpt>
   <trkpt lon="5.62082000" lat="50.65511900">
    <extensions>
     <ql:flags>0</ql:flags>
     <ql:activity>0</ql:activity>
    </extensions>
   </trkpt>
   <trkpt lon="5.62057200" lat="50.65504100">
    <extensions>
     <ql:flags>0</ql:flags>
     <ql:activity>0</ql:activity>
    </extensions>
   </trkpt>
   <trkpt lon="5.62018700" lat="50.65496500">
    <extensions>
     <ql:flags>0</ql:flags>
     <ql:activity>0</ql:activity>
    </extensions>
   </trkpt>
   <trkpt lon="5.61954200" lat="50.65479800">
    <extensions>
     <ql:flags>0</ql:flags>
     <ql:activity>0</ql:activity>
    </extensions>
   </trkpt>
   <trkpt lon="5.61891700" lat="50.65457300">
    <extensions>
     <ql:flags>0</ql:flags>
     <ql:activity>0</ql:activity>
    </extensions>
   </trkpt>
   <trkpt lon="5.61772900" lat="50.65410200">
    <extensions>
     <ql:flags>0</ql:flags>
     <ql:activity>0</ql:activity>
    </extensions>
   </trkpt>
   <trkpt lon="5.61643700" lat="50.65366200">
    <extensions>
     <ql:flags>0</ql:flags>
     <ql:activity>0</ql:activity>
    </extensions>
   </trkpt>
   <trkpt lon="5.61456900" lat="50.65316800">
    <extensions>
     <ql:flags>0</ql:flags>
     <ql:activity>0</ql:activity>
    </extensions>
   </trkpt>
   <trkpt lon="5.61395000" lat="50.65306900">
    <extensions>
     <ql:flags>0</ql:flags>
     <ql:activity>0</ql:activity>
    </extensions>
   </trkpt>
   <trkpt lon="5.61333200" lat="50.65293600">
    <extensions>
     <ql:flags>0</ql:flags>
     <ql:activity>0</ql:activity>
    </extensions>
   </trkpt>
   <trkpt lon="5.61330300" lat="50.65290900">
    <extensions>
     <ql:flags>0</ql:flags>
     <ql:activity>0</ql:activity>
    </extensions>
   </trkpt>
   <trkpt lon="5.61331400" lat="50.65289200">
    <extensions>
     <ql:flags>0</ql:flags>
     <ql:activity>0</ql:activity>
    </extensions>
   </trkpt>
   <trkpt lon="5.61342200" lat="50.65288300">
    <extensions>
     <ql:flags>0</ql:flags>
     <ql:activity>0</ql:activity>
    </extensions>
   </trkpt>
   <trkpt lon="5.61375300" lat="50.65297200">
    <extensions>
     <ql:flags>0</ql:flags>
     <ql:activity>0</ql:activity>
    </extensions>
   </trkpt>
   <trkpt lon="5.61431100" lat="50.65305500">
    <extensions>
     <ql:flags>0</ql:flags>
     <ql:activity>0</ql:activity>
    </extensions>
   </trkpt>
   <trkpt lon="5.61479100" lat="50.65316900">
    <extensions>
     <ql:flags>0</ql:flags>
     <ql:activity>0</ql:activity>
    </extensions>
   </trkpt>
   <trkpt lon="5.61584100" lat="50.65346700">
    <extensions>
     <ql:flags>0</ql:flags>
     <ql:activity>0</ql:activity>
    </extensions>
   </trkpt>
   <trkpt lon="5.61694300" lat="50.65373200">
    <extensions>
     <ql:flags>0</ql:flags>
     <ql:activity>0</ql:activity>
    </extensions>
   </trkpt>
   <trkpt lon="5.61730000" lat="50.65385400">
    <extensions>
     <ql:flags>0</ql:flags>
     <ql:activity>0</ql:activity>
    </extensions>
   </trkpt>
   <trkpt lon="5.61806500" lat="50.65407100">
    <extensions>
     <ql:flags>0</ql:flags>
     <ql:activity>0</ql:activity>
    </extensions>
   </trkpt>
   <trkpt lon="5.61843700" lat="50.65419400">
    <extensions>
     <ql:flags>0</ql:flags>
     <ql:activity>0</ql:activity>
    </extensions>
   </trkpt>
   <trkpt lon="5.61963700" lat="50.65450700">
    <extensions>
     <ql:flags>0</ql:flags>
     <ql:activity>0</ql:activity>
    </extensions>
   </trkpt>
   <trkpt lon="5.62021800" lat="50.65468800">
    <extensions>
     <ql:flags>0</ql:flags>
     <ql:activity>0</ql:activity>
    </extensions>
   </trkpt>
   <trkpt lon="5.62175400" lat="50.65508600">
    <extensions>
     <ql:flags>0</ql:flags>
     <ql:activity>0</ql:activity>
    </extensions>
   </trkpt>
   <trkpt lon="5.62240800" lat="50.65521700">
    <extensions>
     <ql:flags>0</ql:flags>
     <ql:activity>0</ql:activity>
    </extensions>
   </trkpt>
   <trkpt lon="5.62372500" lat="50.65561600">
    <extensions>
     <ql:flags>0</ql:flags>
     <ql:activity>0</ql:activity>
    </extensions>
   </trkpt>
   <trkpt lon="5.62421800" lat="50.65579200">
    <extensions>
     <ql:flags>0</ql:flags>
     <ql:activity>0</ql:activity>
    </extensions>
   </trkpt>
   <trkpt lon="5.62444800" lat="50.65585000">
    <extensions>
     <ql:flags>0</ql:flags>
     <ql:activity>0</ql:activity>
    </extensions>
   </trkpt>
   <trkpt lon="5.62475800" lat="50.65598400">
    <extensions>
     <ql:flags>0</ql:flags>
     <ql:activity>0</ql:activity>
    </extensions>
   </trkpt>
   <trkpt lon="5.62536000" lat="50.65618800">
    <extensions>
     <ql:flags>0</ql:flags>
     <ql:activity>0</ql:activity>
    </extensions>
   </trkpt>
   <trkpt lon="5.62585900" lat="50.65638600">
    <extensions>
     <ql:flags>0</ql:flags>
     <ql:activity>0</ql:activity>
    </extensions>
   </trkpt>
   <trkpt lon="5.62599200" lat="50.65645600">
    <extensions>
     <ql:flags>0</ql:flags>
     <ql:activity>0</ql:activity>
    </extensions>
   </trkpt>
   <trkpt lon="5.62627400" lat="50.65654400">
    <extensions>
     <ql:flags>0</ql:flags>
     <ql:activity>0</ql:activity>
    </extensions>
   </trkpt>
   <trkpt lon="5.62670900" lat="50.65671500">
    <extensions>
     <ql:flags>0</ql:flags>
     <ql:activity>0</ql:activity>
    </extensions>
   </trkpt>
   <trkpt lon="5.62710900" lat="50.65690200">
    <extensions>
     <ql:flags>0</ql:flags>
     <ql:activity>0</ql:activity>
    </extensions>
   </trkpt>
   <trkpt lon="5.62715900" lat="50.65697700">
    <extensions>
     <ql:flags>0</ql:flags>
     <ql:activity>0</ql:activity>
    </extensions>
   </trkpt>
   <trkpt lon="5.62714700" lat="50.65731600">
    <extensions>
     <ql:flags>0</ql:flags>
     <ql:activity>0</ql:activity>
    </extensions>
   </trkpt>
   <trkpt lon="5.62718200" lat="50.65743800">
    <extensions>
     <ql:flags>0</ql:flags>
     <ql:activity>0</ql:activity>
    </extensions>
   </trkpt>
   <trkpt lon="5.62741400" lat="50.65771300">
    <extensions>
     <ql:flags>0</ql:flags>
     <ql:activity>0</ql:activity>
    </extensions>
   </trkpt>
   <trkpt lon="5.62771000" lat="50.65797700">
    <extensions>
     <ql:flags>0</ql:flags>
     <ql:activity>0</ql:activity>
    </extensions>
   </trkpt>
   <trkpt lon="5.62795700" lat="50.65810900">
    <extensions>
     <ql:flags>0</ql:flags>
     <ql:activity>0</ql:activity>
    </extensions>
   </trkpt>
   <trkpt lon="5.62835500" lat="50.65825000">
    <extensions>
     <ql:flags>0</ql:flags>
     <ql:activity>0</ql:activity>
    </extensions>
   </trkpt>
   <trkpt lon="5.62874600" lat="50.65843400">
    <extensions>
     <ql:flags>0</ql:flags>
     <ql:activity>0</ql:activity>
    </extensions>
   </trkpt>
   <trkpt lon="5.62897900" lat="50.65860200">
    <extensions>
     <ql:flags>0</ql:flags>
     <ql:activity>0</ql:activity>
    </extensions>
   </trkpt>
   <trkpt lon="5.62950200" lat="50.65905000">
    <extensions>
     <ql:flags>0</ql:flags>
     <ql:activity>0</ql:activity>
    </extensions>
   </trkpt>
   <trkpt lon="5.62978700" lat="50.65925700">
    <extensions>
     <ql:flags>0</ql:flags>
     <ql:activity>0</ql:activity>
    </extensions>
   </trkpt>
   <trkpt lon="5.63054600" lat="50.65990400">
    <extensions>
     <ql:flags>0</ql:flags>
     <ql:activity>0</ql:activity>
    </extensions>
   </trkpt>
   <trkpt lon="5.63076900" lat="50.66025000">
    <extensions>
     <ql:flags>0</ql:flags>
     <ql:activity>0</ql:activity>
    </extensions>
   </trkpt>
   <trkpt lon="5.63090900" lat="50.66038500">
    <extensions>
     <ql:flags>0</ql:flags>
     <ql:activity>0</ql:activity>
    </extensions>
   </trkpt>
   <trkpt lon="5.63144100" lat="50.66077900">
    <extensions>
     <ql:flags>0</ql:flags>
     <ql:activity>0</ql:activity>
    </extensions>
   </trkpt>
   <trkpt lon="5.63213400" lat="50.66118700">
    <extensions>
     <ql:flags>0</ql:flags>
     <ql:activity>0</ql:activity>
    </extensions>
   </trkpt>
   <trkpt lon="5.63238600" lat="50.66136100">
    <extensions>
     <ql:flags>0</ql:flags>
     <ql:activity>0</ql:activity>
    </extensions>
   </trkpt>
   <trkpt lon="5.63255200" lat="50.66151900">
    <extensions>
     <ql:flags>0</ql:flags>
     <ql:activity>0</ql:activity>
    </extensions>
   </trkpt>
   <trkpt lon="5.63308100" lat="50.66191000">
    <extensions>
     <ql:flags>0</ql:flags>
     <ql:activity>0</ql:activity>
    </extensions>
   </trkpt>
   <trkpt lon="5.63349800" lat="50.66226800">
    <extensions>
     <ql:flags>0</ql:flags>
     <ql:activity>0</ql:activity>
    </extensions>
   </trkpt>
   <trkpt lon="5.63363400" lat="50.66234800">
    <extensions>
     <ql:flags>0</ql:flags>
     <ql:activity>0</ql:activity>
    </extensions>
   </trkpt>
   <trkpt lon="5.63382400" lat="50.66239800">
    <extensions>
     <ql:flags>0</ql:flags>
     <ql:activity>0</ql:activity>
    </extensions>
   </trkpt>
   <trkpt lon="5.63424000" lat="50.66244200">
    <extensions>
     <ql:flags>0</ql:flags>
     <ql:activity>0</ql:activity>
    </extensions>
   </trkpt>
   <trkpt lon="5.63469200" lat="50.66252100">
    <extensions>
     <ql:flags>0</ql:flags>
     <ql:activity>0</ql:activity>
    </extensions>
   </trkpt>
   <trkpt lon="5.63516700" lat="50.66263800">
    <extensions>
     <ql:flags>0</ql:flags>
     <ql:activity>0</ql:activity>
    </extensions>
   </trkpt>
   <trkpt lon="5.63534500" lat="50.66272500">
    <extensions>
     <ql:flags>0</ql:flags>
     <ql:activity>0</ql:activity>
    </extensions>
   </trkpt>
   <trkpt lon="5.63565300" lat="50.66297700">
    <extensions>
     <ql:flags>0</ql:flags>
     <ql:activity>0</ql:activity>
    </extensions>
   </trkpt>
   <trkpt lon="5.63623300" lat="50.66361200">
    <extensions>
     <ql:flags>0</ql:flags>
     <ql:activity>0</ql:activity>
    </extensions>
   </trkpt>
   <trkpt lon="5.63715700" lat="50.66450000">
    <extensions>
     <ql:flags>0</ql:flags>
     <ql:activity>0</ql:activity>
    </extensions>
   </trkpt>
   <trkpt lon="5.63765800" lat="50.66503600">
    <extensions>
     <ql:flags>0</ql:flags>
     <ql:activity>0</ql:activity>
    </extensions>
   </trkpt>
   <trkpt lon="5.63771800" lat="50.66505200">
    <extensions>
     <ql:flags>0</ql:flags>
     <ql:activity>0</ql:activity>
    </extensions>
   </trkpt>
   <trkpt lon="5.63786900" lat="50.66516200">
    <extensions>
     <ql:flags>0</ql:flags>
     <ql:activity>0</ql:activity>
    </extensions>
   </trkpt>
   <trkpt lon="5.63807400" lat="50.66538200">
    <extensions>
     <ql:flags>0</ql:flags>
     <ql:activity>0</ql:activity>
    </extensions>
   </trkpt>
   <trkpt lon="5.63850500" lat="50.66605800">
    <extensions>
     <ql:flags>0</ql:flags>
     <ql:activity>0</ql:activity>
    </extensions>
   </trkpt>
   <trkpt lon="5.63871400" lat="50.66633100">
    <extensions>
     <ql:flags>0</ql:flags>
     <ql:activity>0</ql:activity>
    </extensions>
   </trkpt>
   <trkpt lon="5.63908300" lat="50.66673000">
    <extensions>
     <ql:flags>0</ql:flags>
     <ql:activity>0</ql:activity>
    </extensions>
   </trkpt>
   <trkpt lon="5.63934800" lat="50.66749000">
    <extensions>
     <ql:flags>0</ql:flags>
     <ql:activity>0</ql:activity>
    </extensions>
   </trkpt>
   <trkpt lon="5.63948400" lat="50.66771800">
    <extensions>
     <ql:flags>0</ql:flags>
     <ql:activity>0</ql:activity>
    </extensions>
   </trkpt>
   <trkpt lon="5.63960100" lat="50.66782600">
    <extensions>
     <ql:flags>0</ql:flags>
     <ql:activity>0</ql:activity>
    </extensions>
   </trkpt>
   <trkpt lon="5.63965700" lat="50.66784900">
    <extensions>
     <ql:flags>0</ql:flags>
     <ql:activity>0</ql:activity>
    </extensions>
   </trkpt>
   <trkpt lon="5.63987500" lat="50.66814500">
    <extensions>
     <ql:flags>0</ql:flags>
     <ql:activity>0</ql:activity>
    </extensions>
   </trkpt>
   <trkpt lon="5.64014900" lat="50.66844500">
    <extensions>
     <ql:flags>0</ql:flags>
     <ql:activity>0</ql:activity>
    </extensions>
   </trkpt>
   <trkpt lon="5.64029800" lat="50.66856100">
    <extensions>
     <ql:flags>0</ql:flags>
     <ql:activity>0</ql:activity>
    </extensions>
   </trkpt>
   <trkpt lon="5.64035700" lat="50.66857800">
    <extensions>
     <ql:flags>0</ql:flags>
     <ql:activity>0</ql:activity>
    </extensions>
   </trkpt>
   <trkpt lon="5.64057400" lat="50.66871700">
    <extensions>
     <ql:flags>0</ql:flags>
     <ql:activity>0</ql:activity>
    </extensions>
   </trkpt>
   <trkpt lon="5.64069400" lat="50.66888100">
    <extensions>
     <ql:flags>0</ql:flags>
     <ql:activity>0</ql:activity>
    </extensions>
   </trkpt>
   <trkpt lon="5.64083100" lat="50.66914400">
    <extensions>
     <ql:flags>0</ql:flags>
     <ql:activity>0</ql:activity>
    </extensions>
   </trkpt>
   <trkpt lon="5.64099600" lat="50.66958900">
    <extensions>
     <ql:flags>0</ql:flags>
     <ql:activity>0</ql:activity>
    </extensions>
   </trkpt>
   <trkpt lon="5.64104200" lat="50.66985700">
    <extensions>
     <ql:flags>0</ql:flags>
     <ql:activity>0</ql:activity>
    </extensions>
   </trkpt>
   <trkpt lon="5.64113700" lat="50.67016100">
    <extensions>
     <ql:flags>0</ql:flags>
     <ql:activity>0</ql:activity>
    </extensions>
   </trkpt>
   <trkpt lon="5.64126900" lat="50.67083200">
    <extensions>
     <ql:flags>0</ql:flags>
     <ql:activity>0</ql:activity>
    </extensions>
   </trkpt>
   <trkpt lon="5.64125000" lat="50.67094500">
    <extensions>
     <ql:flags>0</ql:flags>
     <ql:activity>0</ql:activity>
    </extensions>
   </trkpt>
   <trkpt lon="5.64130400" lat="50.67175400">
    <extensions>
     <ql:flags>0</ql:flags>
     <ql:activity>0</ql:activity>
    </extensions>
   </trkpt>
   <trkpt lon="5.64140700" lat="50.67265800">
    <extensions>
     <ql:flags>0</ql:flags>
     <ql:activity>0</ql:activity>
    </extensions>
   </trkpt>
   <trkpt lon="5.64156000" lat="50.67342700">
    <extensions>
     <ql:flags>0</ql:flags>
     <ql:activity>0</ql:activity>
    </extensions>
   </trkpt>
   <trkpt lon="5.64166700" lat="50.67375000">
    <extensions>
     <ql:flags>0</ql:flags>
     <ql:activity>0</ql:activity>
    </extensions>
   </trkpt>
   <trkpt lon="5.64181400" lat="50.67400900">
    <extensions>
     <ql:flags>0</ql:flags>
     <ql:activity>0</ql:activity>
    </extensions>
   </trkpt>
   <trkpt lon="5.64186300" lat="50.67430800">
    <extensions>
     <ql:flags>0</ql:flags>
     <ql:activity>0</ql:activity>
    </extensions>
   </trkpt>
   <trkpt lon="5.64232800" lat="50.67539000">
    <extensions>
     <ql:flags>0</ql:flags>
     <ql:activity>0</ql:activity>
    </extensions>
   </trkpt>
   <trkpt lon="5.64280700" lat="50.67611000">
    <extensions>
     <ql:flags>0</ql:flags>
     <ql:activity>0</ql:activity>
    </extensions>
   </trkpt>
   <trkpt lon="5.64321500" lat="50.67683100">
    <extensions>
     <ql:flags>0</ql:flags>
     <ql:activity>0</ql:activity>
    </extensions>
   </trkpt>
   <trkpt lon="5.64344100" lat="50.67716300">
    <extensions>
     <ql:flags>0</ql:flags>
     <ql:activity>0</ql:activity>
    </extensions>
   </trkpt>
   <trkpt lon="5.64348400" lat="50.67728200">
    <extensions>
     <ql:flags>0</ql:flags>
     <ql:activity>0</ql:activity>
    </extensions>
   </trkpt>
   <trkpt lon="5.64346200" lat="50.67795600">
    <extensions>
     <ql:flags>0</ql:flags>
     <ql:activity>0</ql:activity>
    </extensions>
   </trkpt>
   <trkpt lon="5.64348700" lat="50.67803800">
    <extensions>
     <ql:flags>0</ql:flags>
     <ql:activity>0</ql:activity>
    </extensions>
   </trkpt>
   <trkpt lon="5.64391800" lat="50.67872300">
    <extensions>
     <ql:flags>0</ql:flags>
     <ql:activity>0</ql:activity>
    </extensions>
   </trkpt>
   <trkpt lon="5.64392200" lat="50.67879900">
    <extensions>
     <ql:flags>0</ql:flags>
     <ql:activity>0</ql:activity>
    </extensions>
   </trkpt>
   <trkpt lon="5.64387700" lat="50.67887500">
    <extensions>
     <ql:flags>0</ql:flags>
     <ql:activity>0</ql:activity>
    </extensions>
   </trkpt>
   <trkpt lon="5.64379100" lat="50.67893100">
    <extensions>
     <ql:flags>0</ql:flags>
     <ql:activity>0</ql:activity>
    </extensions>
   </trkpt>
   <trkpt lon="5.64337500" lat="50.67908200">
    <extensions>
     <ql:flags>0</ql:flags>
     <ql:activity>0</ql:activity>
    </extensions>
   </trkpt>
   <trkpt lon="5.64302800" lat="50.67918100">
    <extensions>
     <ql:flags>0</ql:flags>
     <ql:activity>0</ql:activity>
    </extensions>
   </trkpt>
   <trkpt lon="5.64294000" lat="50.67924300">
    <extensions>
     <ql:flags>0</ql:flags>
     <ql:activity>0</ql:activity>
    </extensions>
   </trkpt>
   <trkpt lon="5.64292700" lat="50.67931800">
    <extensions>
     <ql:flags>0</ql:flags>
     <ql:activity>0</ql:activity>
    </extensions>
   </trkpt>
   <trkpt lon="5.64311400" lat="50.67962100">
    <extensions>
     <ql:flags>0</ql:flags>
     <ql:activity>0</ql:activity>
    </extensions>
   </trkpt>
   <trkpt lon="5.64313300" lat="50.67970000">
    <extensions>
     <ql:flags>0</ql:flags>
     <ql:activity>0</ql:activity>
    </extensions>
   </trkpt>
   <trkpt lon="5.64308800" lat="50.67993000">
    <extensions>
     <ql:flags>0</ql:flags>
     <ql:activity>0</ql:activity>
    </extensions>
   </trkpt>
   <trkpt lon="5.64313200" lat="50.68016100">
    <extensions>
     <ql:flags>0</ql:flags>
     <ql:activity>0</ql:activity>
    </extensions>
   </trkpt>
   <trkpt lon="5.64321300" lat="50.68038900">
    <extensions>
     <ql:flags>0</ql:flags>
     <ql:activity>0</ql:activity>
    </extensions>
   </trkpt>
   <trkpt lon="5.64344100" lat="50.68081400">
    <extensions>
     <ql:flags>0</ql:flags>
     <ql:activity>0</ql:activity>
    </extensions>
   </trkpt>
   <trkpt lon="5.64370600" lat="50.68119000">
    <extensions>
     <ql:flags>0</ql:flags>
     <ql:activity>0</ql:activity>
    </extensions>
   </trkpt>
   <trkpt lon="5.64397100" lat="50.68146900">
    <extensions>
     <ql:flags>0</ql:flags>
     <ql:activity>0</ql:activity>
    </extensions>
   </trkpt>
   <trkpt lon="5.64419000" lat="50.68166400">
    <extensions>
     <ql:flags>0</ql:flags>
     <ql:activity>0</ql:activity>
    </extensions>
   </trkpt>
   <trkpt lon="5.64441100" lat="50.68182000">
    <extensions>
     <ql:flags>0</ql:flags>
     <ql:activity>0</ql:activity>
    </extensions>
   </trkpt>
   <trkpt lon="5.64487900" lat="50.68209000">
    <extensions>
     <ql:flags>0</ql:flags>
     <ql:activity>0</ql:activity>
    </extensions>
   </trkpt>
   <trkpt lon="5.64542200" lat="50.68232100">
    <extensions>
     <ql:flags>0</ql:flags>
     <ql:activity>0</ql:activity>
    </extensions>
   </trkpt>
   <trkpt lon="5.64572000" lat="50.68249300">
    <extensions>
     <ql:flags>0</ql:flags>
     <ql:activity>0</ql:activity>
    </extensions>
   </trkpt>
   <trkpt lon="5.64579200" lat="50.68255800">
    <extensions>
     <ql:flags>0</ql:flags>
     <ql:activity>0</ql:activity>
    </extensions>
   </trkpt>
   <trkpt lon="5.64596600" lat="50.68281100">
    <extensions>
     <ql:flags>0</ql:flags>
     <ql:activity>0</ql:activity>
    </extensions>
   </trkpt>
   <trkpt lon="5.64601800" lat="50.68292900">
    <extensions>
     <ql:flags>0</ql:flags>
     <ql:activity>0</ql:activity>
    </extensions>
   </trkpt>
   <trkpt lon="5.64611300" lat="50.68355800">
    <extensions>
     <ql:flags>0</ql:flags>
     <ql:activity>0</ql:activity>
    </extensions>
   </trkpt>
   <trkpt lon="5.64623000" lat="50.68372200">
    <extensions>
     <ql:flags>0</ql:flags>
     <ql:activity>0</ql:activity>
    </extensions>
   </trkpt>
   <trkpt lon="5.64632600" lat="50.68379000">
    <extensions>
     <ql:flags>0</ql:flags>
     <ql:activity>0</ql:activity>
    </extensions>
   </trkpt>
   <trkpt lon="5.64656400" lat="50.68387500">
    <extensions>
     <ql:flags>0</ql:flags>
     <ql:activity>0</ql:activity>
    </extensions>
   </trkpt>
   <trkpt lon="5.64669900" lat="50.68388500">
    <extensions>
     <ql:flags>0</ql:flags>
     <ql:activity>0</ql:activity>
    </extensions>
   </trkpt>
   <trkpt lon="5.64703600" lat="50.68380900">
    <extensions>
     <ql:flags>0</ql:flags>
     <ql:activity>0</ql:activity>
    </extensions>
   </trkpt>
   <trkpt lon="5.64737800" lat="50.68367100">
    <extensions>
     <ql:flags>0</ql:flags>
     <ql:activity>0</ql:activity>
    </extensions>
   </trkpt>
   <trkpt lon="5.64785900" lat="50.68352800">
    <extensions>
     <ql:flags>0</ql:flags>
     <ql:activity>0</ql:activity>
    </extensions>
   </trkpt>
   <trkpt lon="5.64802700" lat="50.68354300">
    <extensions>
     <ql:flags>0</ql:flags>
     <ql:activity>0</ql:activity>
    </extensions>
   </trkpt>
   <trkpt lon="5.64837500" lat="50.68381200">
    <extensions>
     <ql:flags>0</ql:flags>
     <ql:activity>0</ql:activity>
    </extensions>
   </trkpt>
   <trkpt lon="5.64833100" lat="50.68391000">
    <extensions>
     <ql:flags>0</ql:flags>
     <ql:activity>0</ql:activity>
    </extensions>
   </trkpt>
   <trkpt lon="5.64836600" lat="50.68402700">
    <extensions>
     <ql:flags>0</ql:flags>
     <ql:activity>0</ql:activity>
    </extensions>
   </trkpt>
   <trkpt lon="5.64856700" lat="50.68436700">
    <extensions>
     <ql:flags>0</ql:flags>
     <ql:activity>0</ql:activity>
    </extensions>
   </trkpt>
   <trkpt lon="5.64912000" lat="50.68512700">
    <extensions>
     <ql:flags>0</ql:flags>
     <ql:activity>0</ql:activity>
    </extensions>
   </trkpt>
   <trkpt lon="5.64923000" lat="50.68548700">
    <extensions>
     <ql:flags>0</ql:flags>
     <ql:activity>0</ql:activity>
    </extensions>
   </trkpt>
   <trkpt lon="5.64931600" lat="50.68567700">
    <extensions>
     <ql:flags>0</ql:flags>
     <ql:activity>0</ql:activity>
    </extensions>
   </trkpt>
   <trkpt lon="5.64939300" lat="50.68598400">
    <extensions>
     <ql:flags>0</ql:flags>
     <ql:activity>0</ql:activity>
    </extensions>
   </trkpt>
   <trkpt lon="5.64963700" lat="50.68662300">
    <extensions>
     <ql:flags>0</ql:flags>
     <ql:activity>0</ql:activity>
    </extensions>
   </trkpt>
   <trkpt lon="5.65003800" lat="50.68709900">
    <extensions>
     <ql:flags>0</ql:flags>
     <ql:activity>0</ql:activity>
    </extensions>
   </trkpt>
   <trkpt lon="5.65068400" lat="50.68795800">
    <extensions>
     <ql:flags>0</ql:flags>
     <ql:activity>0</ql:activity>
    </extensions>
   </trkpt>
   <trkpt lon="5.65136000" lat="50.68878000">
    <extensions>
     <ql:flags>0</ql:flags>
     <ql:activity>0</ql:activity>
    </extensions>
   </trkpt>
   <trkpt lon="5.65194600" lat="50.68958300">
    <extensions>
     <ql:flags>0</ql:flags>
     <ql:activity>0</ql:activity>
    </extensions>
   </trkpt>
   <trkpt lon="5.65216700" lat="50.68983300">
    <extensions>
     <ql:flags>0</ql:flags>
     <ql:activity>0</ql:activity>
    </extensions>
   </trkpt>
   <trkpt lon="5.65234600" lat="50.69009300">
    <extensions>
     <ql:flags>0</ql:flags>
     <ql:activity>0</ql:activity>
    </extensions>
   </trkpt>
   <trkpt lon="5.65267800" lat="50.69048300">
    <extensions>
     <ql:flags>0</ql:flags>
     <ql:activity>0</ql:activity>
    </extensions>
   </trkpt>
   <trkpt lon="5.65296900" lat="50.69088400">
    <extensions>
     <ql:flags>0</ql:flags>
     <ql:activity>0</ql:activity>
    </extensions>
   </trkpt>
   <trkpt lon="5.65312800" lat="50.69105800">
    <extensions>
     <ql:flags>0</ql:flags>
     <ql:activity>0</ql:activity>
    </extensions>
   </trkpt>
   <trkpt lon="5.65349000" lat="50.69153900">
    <extensions>
     <ql:flags>0</ql:flags>
     <ql:activity>0</ql:activity>
    </extensions>
   </trkpt>
   <trkpt lon="5.65470700" lat="50.69284900">
    <extensions>
     <ql:flags>0</ql:flags>
     <ql:activity>0</ql:activity>
    </extensions>
   </trkpt>
   <trkpt lon="5.65511200" lat="50.69331900">
    <extensions>
     <ql:flags>0</ql:flags>
     <ql:activity>0</ql:activity>
    </extensions>
   </trkpt>
   <trkpt lon="5.65626700" lat="50.69455900">
    <extensions>
     <ql:flags>0</ql:flags>
     <ql:activity>0</ql:activity>
    </extensions>
   </trkpt>
   <trkpt lon="5.65669800" lat="50.69506100">
    <extensions>
     <ql:flags>0</ql:flags>
     <ql:activity>0</ql:activity>
    </extensions>
   </trkpt>
   <trkpt lon="5.65750600" lat="50.69591600">
    <extensions>
     <ql:flags>0</ql:flags>
     <ql:activity>0</ql:activity>
    </extensions>
   </trkpt>
   <trkpt lon="5.65770000" lat="50.69616000">
    <extensions>
     <ql:flags>0</ql:flags>
     <ql:activity>0</ql:activity>
    </extensions>
   </trkpt>
   <trkpt lon="5.65801200" lat="50.69645900">
    <extensions>
     <ql:flags>0</ql:flags>
     <ql:activity>0</ql:activity>
    </extensions>
   </trkpt>
   <trkpt lon="5.65821000" lat="50.69670900">
    <extensions>
     <ql:flags>0</ql:flags>
     <ql:activity>0</ql:activity>
    </extensions>
   </trkpt>
   <trkpt lon="5.65857300" lat="50.69707100">
    <extensions>
     <ql:flags>0</ql:flags>
     <ql:activity>0</ql:activity>
    </extensions>
   </trkpt>
   <trkpt lon="5.65886900" lat="50.69741700">
    <extensions>
     <ql:flags>0</ql:flags>
     <ql:activity>0</ql:activity>
    </extensions>
   </trkpt>
   <trkpt lon="5.65904600" lat="50.69758900">
    <extensions>
     <ql:flags>0</ql:flags>
     <ql:activity>0</ql:activity>
    </extensions>
   </trkpt>
   <trkpt lon="5.65905900" lat="50.69762400">
    <extensions>
     <ql:flags>0</ql:flags>
     <ql:activity>0</ql:activity>
    </extensions>
   </trkpt>
   <trkpt lon="5.65961800" lat="50.69819900">
    <extensions>
     <ql:flags>0</ql:flags>
     <ql:activity>0</ql:activity>
    </extensions>
   </trkpt>
   <trkpt lon="5.65982000" lat="50.69845800">
    <extensions>
     <ql:flags>0</ql:flags>
     <ql:activity>0</ql:activity>
    </extensions>
   </trkpt>
   <trkpt lon="5.66019200" lat="50.69884000">
    <extensions>
     <ql:flags>0</ql:flags>
     <ql:activity>0</ql:activity>
    </extensions>
   </trkpt>
   <trkpt lon="5.66059500" lat="50.69933200">
    <extensions>
     <ql:flags>0</ql:flags>
     <ql:activity>0</ql:activity>
    </extensions>
   </trkpt>
   <trkpt lon="5.66071200" lat="50.69943500">
    <extensions>
     <ql:flags>0</ql:flags>
     <ql:activity>0</ql:activity>
    </extensions>
   </trkpt>
   <trkpt lon="5.66245800" lat="50.70130600">
    <extensions>
     <ql:flags>0</ql:flags>
     <ql:activity>0</ql:activity>
    </extensions>
   </trkpt>
   <trkpt lon="5.66302000" lat="50.70196000">
    <extensions>
     <ql:flags>0</ql:flags>
     <ql:activity>0</ql:activity>
    </extensions>
   </trkpt>
   <trkpt lon="5.66333000" lat="50.70225500">
    <extensions>
     <ql:flags>0</ql:flags>
     <ql:activity>0</ql:activity>
    </extensions>
   </trkpt>
   <trkpt lon="5.66396200" lat="50.70299700">
    <extensions>
     <ql:flags>0</ql:flags>
     <ql:activity>0</ql:activity>
    </extensions>
   </trkpt>
   <trkpt lon="5.66481700" lat="50.70390300">
    <extensions>
     <ql:flags>0</ql:flags>
     <ql:activity>0</ql:activity>
    </extensions>
   </trkpt>
   <trkpt lon="5.66514700" lat="50.70429000">
    <extensions>
     <ql:flags>0</ql:flags>
     <ql:activity>0</ql:activity>
    </extensions>
   </trkpt>
   <trkpt lon="5.66608700" lat="50.70529900">
    <extensions>
     <ql:flags>0</ql:flags>
     <ql:activity>0</ql:activity>
    </extensions>
   </trkpt>
   <trkpt lon="5.66617800" lat="50.70544000">
    <extensions>
     <ql:flags>0</ql:flags>
     <ql:activity>0</ql:activity>
    </extensions>
   </trkpt>
   <trkpt lon="5.66624700" lat="50.70587000">
    <extensions>
     <ql:flags>0</ql:flags>
     <ql:activity>0</ql:activity>
    </extensions>
   </trkpt>
   <trkpt lon="5.66630400" lat="50.70598400">
    <extensions>
     <ql:flags>0</ql:flags>
     <ql:activity>0</ql:activity>
    </extensions>
   </trkpt>
   <trkpt lon="5.66681100" lat="50.70658500">
    <extensions>
     <ql:flags>0</ql:flags>
     <ql:activity>0</ql:activity>
    </extensions>
   </trkpt>
   <trkpt lon="5.66757000" lat="50.70738400">
    <extensions>
     <ql:flags>0</ql:flags>
     <ql:activity>0</ql:activity>
    </extensions>
   </trkpt>
   <trkpt lon="5.66827500" lat="50.70835200">
    <extensions>
     <ql:flags>0</ql:flags>
     <ql:activity>0</ql:activity>
    </extensions>
   </trkpt>
   <trkpt lon="5.66880300" lat="50.70914200">
    <extensions>
     <ql:flags>0</ql:flags>
     <ql:activity>0</ql:activity>
    </extensions>
   </trkpt>
   <trkpt lon="5.66967900" lat="50.71085800">
    <extensions>
     <ql:flags>0</ql:flags>
     <ql:activity>0</ql:activity>
    </extensions>
   </trkpt>
   <trkpt lon="5.66976100" lat="50.71117900">
    <extensions>
     <ql:flags>0</ql:flags>
     <ql:activity>0</ql:activity>
    </extensions>
   </trkpt>
   <trkpt lon="5.67008900" lat="50.71218400">
    <extensions>
     <ql:flags>0</ql:flags>
     <ql:activity>0</ql:activity>
    </extensions>
   </trkpt>
   <trkpt lon="5.67023700" lat="50.71251800">
    <extensions>
     <ql:flags>0</ql:flags>
     <ql:activity>0</ql:activity>
    </extensions>
   </trkpt>
   <trkpt lon="5.67060000" lat="50.71296500">
    <extensions>
     <ql:flags>0</ql:flags>
     <ql:activity>0</ql:activity>
    </extensions>
   </trkpt>
   <trkpt lon="5.67080200" lat="50.71392000">
    <extensions>
     <ql:flags>0</ql:flags>
     <ql:activity>0</ql:activity>
    </extensions>
   </trkpt>
   <trkpt lon="5.67079200" lat="50.71400500">
    <extensions>
     <ql:flags>0</ql:flags>
     <ql:activity>0</ql:activity>
    </extensions>
   </trkpt>
   <trkpt lon="5.67072200" lat="50.71406900">
    <extensions>
     <ql:flags>0</ql:flags>
     <ql:activity>0</ql:activity>
    </extensions>
   </trkpt>
   <trkpt lon="5.67060800" lat="50.71412300">
    <extensions>
     <ql:flags>0</ql:flags>
     <ql:activity>0</ql:activity>
    </extensions>
   </trkpt>
   <trkpt lon="5.66998800" lat="50.71426100">
    <extensions>
     <ql:flags>0</ql:flags>
     <ql:activity>0</ql:activity>
    </extensions>
   </trkpt>
   <trkpt lon="5.66979900" lat="50.71436900">
    <extensions>
     <ql:flags>0</ql:flags>
     <ql:activity>0</ql:activity>
    </extensions>
   </trkpt>
   <trkpt lon="5.66968200" lat="50.71451900">
    <extensions>
     <ql:flags>0</ql:flags>
     <ql:activity>0</ql:activity>
    </extensions>
   </trkpt>
   <trkpt lon="5.66963900" lat="50.71471200">
    <extensions>
     <ql:flags>0</ql:flags>
     <ql:activity>0</ql:activity>
    </extensions>
   </trkpt>
   <trkpt lon="5.66964500" lat="50.71485900">
    <extensions>
     <ql:flags>0</ql:flags>
     <ql:activity>0</ql:activity>
    </extensions>
   </trkpt>
   <trkpt lon="5.66967500" lat="50.71494100">
    <extensions>
     <ql:flags>0</ql:flags>
     <ql:activity>0</ql:activity>
    </extensions>
   </trkpt>
   <trkpt lon="5.66980600" lat="50.71503600">
    <extensions>
     <ql:flags>0</ql:flags>
     <ql:activity>0</ql:activity>
    </extensions>
   </trkpt>
   <trkpt lon="5.66998200" lat="50.71505900">
    <extensions>
     <ql:flags>0</ql:flags>
     <ql:activity>0</ql:activity>
    </extensions>
   </trkpt>
   <trkpt lon="5.67033600" lat="50.71504400">
    <extensions>
     <ql:flags>0</ql:flags>
     <ql:activity>0</ql:activity>
    </extensions>
   </trkpt>
   <trkpt lon="5.67099300" lat="50.71497400">
    <extensions>
     <ql:flags>0</ql:flags>
     <ql:activity>0</ql:activity>
    </extensions>
   </trkpt>
   <trkpt lon="5.67187700" lat="50.71492800">
    <extensions>
     <ql:flags>0</ql:flags>
     <ql:activity>0</ql:activity>
    </extensions>
   </trkpt>
   <trkpt lon="5.67297000" lat="50.71483600">
    <extensions>
     <ql:flags>0</ql:flags>
     <ql:activity>0</ql:activity>
    </extensions>
   </trkpt>
   <trkpt lon="5.67367300" lat="50.71481900">
    <extensions>
     <ql:flags>0</ql:flags>
     <ql:activity>0</ql:activity>
    </extensions>
   </trkpt>
   <trkpt lon="5.67405600" lat="50.71472300">
    <extensions>
     <ql:flags>0</ql:flags>
     <ql:activity>0</ql:activity>
    </extensions>
   </trkpt>
   <trkpt lon="5.67436600" lat="50.71459800">
    <extensions>
     <ql:flags>0</ql:flags>
     <ql:activity>0</ql:activity>
    </extensions>
   </trkpt>
   <trkpt lon="5.67454900" lat="50.71455000">
    <extensions>
     <ql:flags>0</ql:flags>
     <ql:activity>0</ql:activity>
    </extensions>
   </trkpt>
   <trkpt lon="5.67466700" lat="50.71449800">
    <extensions>
     <ql:flags>0</ql:flags>
     <ql:activity>0</ql:activity>
    </extensions>
   </trkpt>
   <trkpt lon="5.67527700" lat="50.71409900">
    <extensions>
     <ql:flags>0</ql:flags>
     <ql:activity>0</ql:activity>
    </extensions>
   </trkpt>
   <trkpt lon="5.67540000" lat="50.71395700">
    <extensions>
     <ql:flags>0</ql:flags>
     <ql:activity>0</ql:activity>
    </extensions>
   </trkpt>
   <trkpt lon="5.67563800" lat="50.71377100">
    <extensions>
     <ql:flags>0</ql:flags>
     <ql:activity>0</ql:activity>
    </extensions>
   </trkpt>
   <trkpt lon="5.67595200" lat="50.71356900">
    <extensions>
     <ql:flags>0</ql:flags>
     <ql:activity>0</ql:activity>
    </extensions>
   </trkpt>
   <trkpt lon="5.67597300" lat="50.71352700">
    <extensions>
     <ql:flags>0</ql:flags>
     <ql:activity>0</ql:activity>
    </extensions>
   </trkpt>
   <trkpt lon="5.67594300" lat="50.71345500">
    <extensions>
     <ql:flags>0</ql:flags>
     <ql:activity>0</ql:activity>
    </extensions>
   </trkpt>
   <trkpt lon="5.67589400" lat="50.71343000">
    <extensions>
     <ql:flags>0</ql:flags>
     <ql:activity>0</ql:activity>
    </extensions>
   </trkpt>
   <trkpt lon="5.67550500" lat="50.71333600">
    <extensions>
     <ql:flags>0</ql:flags>
     <ql:activity>0</ql:activity>
    </extensions>
   </trkpt>
   <trkpt lon="5.67544000" lat="50.71333600">
    <extensions>
     <ql:flags>0</ql:flags>
     <ql:activity>0</ql:activity>
    </extensions>
   </trkpt>
   <trkpt lon="5.67498200" lat="50.71342300">
    <extensions>
     <ql:flags>0</ql:flags>
     <ql:activity>0</ql:activity>
    </extensions>
   </trkpt>
   <trkpt lon="5.67480800" lat="50.71347800">
    <extensions>
     <ql:flags>0</ql:flags>
     <ql:activity>0</ql:activity>
    </extensions>
   </trkpt>
   <trkpt lon="5.67475000" lat="50.71346400">
    <extensions>
     <ql:flags>0</ql:flags>
     <ql:activity>0</ql:activity>
    </extensions>
   </trkpt>
   <trkpt lon="5.67474300" lat="50.71343500">
    <extensions>
     <ql:flags>0</ql:flags>
     <ql:activity>0</ql:activity>
    </extensions>
   </trkpt>
   <trkpt lon="5.67504700" lat="50.71330500">
    <extensions>
     <ql:flags>0</ql:flags>
     <ql:activity>0</ql:activity>
    </extensions>
   </trkpt>
   <trkpt lon="5.67510800" lat="50.71321000">
    <extensions>
     <ql:flags>0</ql:flags>
     <ql:activity>0</ql:activity>
    </extensions>
   </trkpt>
   <trkpt lon="5.67504600" lat="50.71314700">
    <extensions>
     <ql:flags>0</ql:flags>
     <ql:activity>0</ql:activity>
    </extensions>
   </trkpt>
   <trkpt lon="5.67463600" lat="50.71300200">
    <extensions>
     <ql:flags>0</ql:flags>
     <ql:activity>0</ql:activity>
    </extensions>
   </trkpt>
   <trkpt lon="5.67450800" lat="50.71300500">
    <extensions>
     <ql:flags>0</ql:flags>
     <ql:activity>0</ql:activity>
    </extensions>
   </trkpt>
   <trkpt lon="5.67421500" lat="50.71306100">
    <extensions>
     <ql:flags>0</ql:flags>
     <ql:activity>0</ql:activity>
    </extensions>
   </trkpt>
   <trkpt lon="5.67403600" lat="50.71306000">
    <extensions>
     <ql:flags>0</ql:flags>
     <ql:activity>0</ql:activity>
    </extensions>
   </trkpt>
   <trkpt lon="5.67395500" lat="50.71300900">
    <extensions>
     <ql:flags>0</ql:flags>
     <ql:activity>0</ql:activity>
    </extensions>
   </trkpt>
   <trkpt lon="5.67390300" lat="50.71288800">
    <extensions>
     <ql:flags>0</ql:flags>
     <ql:activity>0</ql:activity>
    </extensions>
   </trkpt>
   <trkpt lon="5.67380000" lat="50.71284100">
    <extensions>
     <ql:flags>0</ql:flags>
     <ql:activity>0</ql:activity>
    </extensions>
   </trkpt>
   <trkpt lon="5.67350900" lat="50.71287000">
    <extensions>
     <ql:flags>0</ql:flags>
     <ql:activity>0</ql:activity>
    </extensions>
   </trkpt>
   <trkpt lon="5.67344600" lat="50.71286200">
    <extensions>
     <ql:flags>0</ql:flags>
     <ql:activity>0</ql:activity>
    </extensions>
   </trkpt>
   <trkpt lon="5.67320900" lat="50.71275600">
    <extensions>
     <ql:flags>0</ql:flags>
     <ql:activity>0</ql:activity>
    </extensions>
   </trkpt>
   <trkpt lon="5.67305300" lat="50.71270800">
    <extensions>
     <ql:flags>0</ql:flags>
     <ql:activity>0</ql:activity>
    </extensions>
   </trkpt>
   <trkpt lon="5.67281500" lat="50.71186300">
    <extensions>
     <ql:flags>0</ql:flags>
     <ql:activity>0</ql:activity>
    </extensions>
   </trkpt>
   <trkpt lon="5.67262500" lat="50.71094100">
    <extensions>
     <ql:flags>0</ql:flags>
     <ql:activity>0</ql:activity>
    </extensions>
   </trkpt>
   <trkpt lon="5.67246000" lat="50.71038300">
    <extensions>
     <ql:flags>0</ql:flags>
     <ql:activity>0</ql:activity>
    </extensions>
   </trkpt>
   <trkpt lon="5.67233700" lat="50.71008000">
    <extensions>
     <ql:flags>0</ql:flags>
     <ql:activity>0</ql:activity>
    </extensions>
   </trkpt>
   <trkpt lon="5.67214100" lat="50.70975300">
    <extensions>
     <ql:flags>0</ql:flags>
     <ql:activity>0</ql:activity>
    </extensions>
   </trkpt>
   <trkpt lon="5.67172300" lat="50.70892400">
    <extensions>
     <ql:flags>0</ql:flags>
     <ql:activity>0</ql:activity>
    </extensions>
   </trkpt>
   <trkpt lon="5.67155900" lat="50.70866100">
    <extensions>
     <ql:flags>0</ql:flags>
     <ql:activity>0</ql:activity>
    </extensions>
   </trkpt>
   <trkpt lon="5.67128700" lat="50.70809300">
    <extensions>
     <ql:flags>0</ql:flags>
     <ql:activity>0</ql:activity>
    </extensions>
   </trkpt>
   <trkpt lon="5.67116600" lat="50.70770400">
    <extensions>
     <ql:flags>0</ql:flags>
     <ql:activity>0</ql:activity>
    </extensions>
   </trkpt>
   <trkpt lon="5.67113300" lat="50.70743500">
    <extensions>
     <ql:flags>0</ql:flags>
     <ql:activity>0</ql:activity>
    </extensions>
   </trkpt>
   <trkpt lon="5.67093700" lat="50.70689900">
    <extensions>
     <ql:flags>0</ql:flags>
     <ql:activity>0</ql:activity>
    </extensions>
   </trkpt>
   <trkpt lon="5.67074700" lat="50.70661900">
    <extensions>
     <ql:flags>0</ql:flags>
     <ql:activity>0</ql:activity>
    </extensions>
   </trkpt>
   <trkpt lon="5.67039000" lat="50.70621200">
    <extensions>
     <ql:flags>0</ql:flags>
     <ql:activity>0</ql:activity>
    </extensions>
   </trkpt>
   <trkpt lon="5.67037100" lat="50.70613400">
    <extensions>
     <ql:flags>0</ql:flags>
     <ql:activity>0</ql:activity>
    </extensions>
   </trkpt>
   <trkpt lon="5.67039500" lat="50.70609300">
    <extensions>
     <ql:flags>0</ql:flags>
     <ql:activity>0</ql:activity>
    </extensions>
   </trkpt>
   <trkpt lon="5.67079700" lat="50.70584300">
    <extensions>
     <ql:flags>0</ql:flags>
     <ql:activity>0</ql:activity>
    </extensions>
   </trkpt>
   <trkpt lon="5.67097900" lat="50.70575400">
    <extensions>
     <ql:flags>0</ql:flags>
     <ql:activity>0</ql:activity>
    </extensions>
   </trkpt>
   <trkpt lon="5.67115400" lat="50.70569800">
    <extensions>
     <ql:flags>0</ql:flags>
     <ql:activity>0</ql:activity>
    </extensions>
   </trkpt>
   <trkpt lon="5.67159100" lat="50.70563100">
    <extensions>
     <ql:flags>0</ql:flags>
     <ql:activity>0</ql:activity>
    </extensions>
   </trkpt>
   <trkpt lon="5.67170300" lat="50.70559400">
    <extensions>
     <ql:flags>0</ql:flags>
     <ql:activity>0</ql:activity>
    </extensions>
   </trkpt>
   <trkpt lon="5.67184700" lat="50.70550200">
    <extensions>
     <ql:flags>0</ql:flags>
     <ql:activity>0</ql:activity>
    </extensions>
   </trkpt>
   <trkpt lon="5.67182100" lat="50.70538700">
    <extensions>
     <ql:flags>0</ql:flags>
     <ql:activity>0</ql:activity>
    </extensions>
   </trkpt>
   <trkpt lon="5.67139700" lat="50.70486800">
    <extensions>
     <ql:flags>0</ql:flags>
     <ql:activity>0</ql:activity>
    </extensions>
   </trkpt>
   <trkpt lon="5.67136500" lat="50.70479200">
    <extensions>
     <ql:flags>0</ql:flags>
     <ql:activity>0</ql:activity>
    </extensions>
   </trkpt>
   <trkpt lon="5.67141800" lat="50.70475000">
    <extensions>
     <ql:flags>0</ql:flags>
     <ql:activity>0</ql:activity>
    </extensions>
   </trkpt>
   <trkpt lon="5.67198400" lat="50.70462100">
    <extensions>
     <ql:flags>0</ql:flags>
     <ql:activity>0</ql:activity>
    </extensions>
   </trkpt>
   <trkpt lon="5.67204400" lat="50.70458700">
    <extensions>
     <ql:flags>0</ql:flags>
     <ql:activity>0</ql:activity>
    </extensions>
   </trkpt>
   <trkpt lon="5.67208900" lat="50.70450400">
    <extensions>
     <ql:flags>0</ql:flags>
     <ql:activity>0</ql:activity>
    </extensions>
   </trkpt>
   <trkpt lon="5.67205100" lat="50.70442600">
    <extensions>
     <ql:flags>0</ql:flags>
     <ql:activity>0</ql:activity>
    </extensions>
   </trkpt>
   <trkpt lon="5.67174500" lat="50.70408300">
    <extensions>
     <ql:flags>0</ql:flags>
     <ql:activity>0</ql:activity>
    </extensions>
   </trkpt>
   <trkpt lon="5.67146500" lat="50.70380900">
    <extensions>
     <ql:flags>0</ql:flags>
     <ql:activity>0</ql:activity>
    </extensions>
   </trkpt>
   <trkpt lon="5.67123000" lat="50.70351500">
    <extensions>
     <ql:flags>0</ql:flags>
     <ql:activity>0</ql:activity>
    </extensions>
   </trkpt>
   <trkpt lon="5.67086800" lat="50.70313700">
    <extensions>
     <ql:flags>0</ql:flags>
     <ql:activity>0</ql:activity>
    </extensions>
   </trkpt>
   <trkpt lon="5.67042800" lat="50.70259400">
    <extensions>
     <ql:flags>0</ql:flags>
     <ql:activity>0</ql:activity>
    </extensions>
   </trkpt>
   <trkpt lon="5.67042400" lat="50.70249400">
    <extensions>
     <ql:flags>0</ql:flags>
     <ql:activity>0</ql:activity>
    </extensions>
   </trkpt>
   <trkpt lon="5.67047000" lat="50.70245900">
    <extensions>
     <ql:flags>0</ql:flags>
     <ql:activity>0</ql:activity>
    </extensions>
   </trkpt>
   <trkpt lon="5.67093900" lat="50.70227700">
    <extensions>
     <ql:flags>0</ql:flags>
     <ql:activity>0</ql:activity>
    </extensions>
   </trkpt>
   <trkpt lon="5.67103200" lat="50.70221600">
    <extensions>
     <ql:flags>0</ql:flags>
     <ql:activity>0</ql:activity>
    </extensions>
   </trkpt>
   <trkpt lon="5.67107000" lat="50.70213300">
    <extensions>
     <ql:flags>0</ql:flags>
     <ql:activity>0</ql:activity>
    </extensions>
   </trkpt>
   <trkpt lon="5.67091100" lat="50.70187100">
    <extensions>
     <ql:flags>0</ql:flags>
     <ql:activity>0</ql:activity>
    </extensions>
   </trkpt>
   <trkpt lon="5.67077800" lat="50.70125100">
    <extensions>
     <ql:flags>0</ql:flags>
     <ql:activity>0</ql:activity>
    </extensions>
   </trkpt>
   <trkpt lon="5.67075000" lat="50.70095500">
    <extensions>
     <ql:flags>0</ql:flags>
     <ql:activity>0</ql:activity>
    </extensions>
   </trkpt>
   <trkpt lon="5.67077500" lat="50.70087900">
    <extensions>
     <ql:flags>0</ql:flags>
     <ql:activity>0</ql:activity>
    </extensions>
   </trkpt>
   <trkpt lon="5.67098000" lat="50.70059100">
    <extensions>
     <ql:flags>0</ql:flags>
     <ql:activity>0</ql:activity>
    </extensions>
   </trkpt>
   <trkpt lon="5.67116400" lat="50.70038500">
    <extensions>
     <ql:flags>0</ql:flags>
     <ql:activity>0</ql:activity>
    </extensions>
   </trkpt>
   <trkpt lon="5.67133800" lat="50.70008700">
    <extensions>
     <ql:flags>0</ql:flags>
     <ql:activity>0</ql:activity>
    </extensions>
   </trkpt>
   <trkpt lon="5.67131500" lat="50.69986100">
    <extensions>
     <ql:flags>0</ql:flags>
     <ql:activity>0</ql:activity>
    </extensions>
   </trkpt>
   <trkpt lon="5.67114600" lat="50.69956400">
    <extensions>
     <ql:flags>0</ql:flags>
     <ql:activity>0</ql:activity>
    </extensions>
   </trkpt>
   <trkpt lon="5.67035700" lat="50.69853800">
    <extensions>
     <ql:flags>0</ql:flags>
     <ql:activity>0</ql:activity>
    </extensions>
   </trkpt>
   <trkpt lon="5.66990400" lat="50.69805900">
    <extensions>
     <ql:flags>0</ql:flags>
     <ql:activity>0</ql:activity>
    </extensions>
   </trkpt>
   <trkpt lon="5.66953100" lat="50.69775300">
    <extensions>
     <ql:flags>0</ql:flags>
     <ql:activity>0</ql:activity>
    </extensions>
   </trkpt>
   <trkpt lon="5.66920100" lat="50.69752900">
    <extensions>
     <ql:flags>0</ql:flags>
     <ql:activity>0</ql:activity>
    </extensions>
   </trkpt>
   <trkpt lon="5.66878300" lat="50.69730100">
    <extensions>
     <ql:flags>0</ql:flags>
     <ql:activity>0</ql:activity>
    </extensions>
   </trkpt>
   <trkpt lon="5.66793500" lat="50.69674600">
    <extensions>
     <ql:flags>0</ql:flags>
     <ql:activity>0</ql:activity>
    </extensions>
   </trkpt>
   <trkpt lon="5.66773000" lat="50.69656200">
    <extensions>
     <ql:flags>0</ql:flags>
     <ql:activity>0</ql:activity>
    </extensions>
   </trkpt>
   <trkpt lon="5.66685700" lat="50.69556900">
    <extensions>
     <ql:flags>0</ql:flags>
     <ql:activity>0</ql:activity>
    </extensions>
   </trkpt>
   <trkpt lon="5.66626800" lat="50.69480300">
    <extensions>
     <ql:flags>0</ql:flags>
     <ql:activity>0</ql:activity>
    </extensions>
   </trkpt>
   <trkpt lon="5.66560400" lat="50.69403100">
    <extensions>
     <ql:flags>0</ql:flags>
     <ql:activity>0</ql:activity>
    </extensions>
   </trkpt>
   <trkpt lon="5.66543800" lat="50.69386600">
    <extensions>
     <ql:flags>0</ql:flags>
     <ql:activity>0</ql:activity>
    </extensions>
   </trkpt>
   <trkpt lon="5.66497500" lat="50.69326700">
    <extensions>
     <ql:flags>0</ql:flags>
     <ql:activity>0</ql:activity>
    </extensions>
   </trkpt>
   <trkpt lon="5.66412300" lat="50.69229500">
    <extensions>
     <ql:flags>0</ql:flags>
     <ql:activity>0</ql:activity>
    </extensions>
   </trkpt>
   <trkpt lon="5.66396000" lat="50.69208000">
    <extensions>
     <ql:flags>0</ql:flags>
     <ql:activity>0</ql:activity>
    </extensions>
   </trkpt>
   <trkpt lon="5.66261600" lat="50.69049800">
    <extensions>
     <ql:flags>0</ql:flags>
     <ql:activity>0</ql:activity>
    </extensions>
   </trkpt>
   <trkpt lon="5.66249400" lat="50.69032600">
    <extensions>
     <ql:flags>0</ql:flags>
     <ql:activity>0</ql:activity>
    </extensions>
   </trkpt>
   <trkpt lon="5.66188400" lat="50.68964700">
    <extensions>
     <ql:flags>0</ql:flags>
     <ql:activity>0</ql:activity>
    </extensions>
   </trkpt>
   <trkpt lon="5.66108900" lat="50.68865600">
    <extensions>
     <ql:flags>0</ql:flags>
     <ql:activity>0</ql:activity>
    </extensions>
   </trkpt>
   <trkpt lon="5.65945300" lat="50.68673600">
    <extensions>
     <ql:flags>0</ql:flags>
     <ql:activity>0</ql:activity>
    </extensions>
   </trkpt>
   <trkpt lon="5.65904800" lat="50.68622100">
    <extensions>
     <ql:flags>0</ql:flags>
     <ql:activity>0</ql:activity>
    </extensions>
   </trkpt>
   <trkpt lon="5.65816400" lat="50.68517100">
    <extensions>
     <ql:flags>0</ql:flags>
     <ql:activity>0</ql:activity>
    </extensions>
   </trkpt>
   <trkpt lon="5.65798300" lat="50.68500800">
    <extensions>
     <ql:flags>0</ql:flags>
     <ql:activity>0</ql:activity>
    </extensions>
   </trkpt>
   <trkpt lon="5.65772400" lat="50.68485000">
    <extensions>
     <ql:flags>0</ql:flags>
     <ql:activity>0</ql:activity>
    </extensions>
   </trkpt>
   <trkpt lon="5.65717100" lat="50.68461000">
    <extensions>
     <ql:flags>0</ql:flags>
     <ql:activity>0</ql:activity>
    </extensions>
   </trkpt>
   <trkpt lon="5.65696100" lat="50.68454300">
    <extensions>
     <ql:flags>0</ql:flags>
     <ql:activity>0</ql:activity>
    </extensions>
   </trkpt>
   <trkpt lon="5.65556600" lat="50.68395000">
    <extensions>
     <ql:flags>0</ql:flags>
     <ql:activity>0</ql:activity>
    </extensions>
   </trkpt>
   <trkpt lon="5.65499300" lat="50.68374200">
    <extensions>
     <ql:flags>0</ql:flags>
     <ql:activity>0</ql:activity>
    </extensions>
   </trkpt>
   <trkpt lon="5.65427200" lat="50.68341500">
    <extensions>
     <ql:flags>0</ql:flags>
     <ql:activity>0</ql:activity>
    </extensions>
   </trkpt>
   <trkpt lon="5.65319200" lat="50.68297300">
    <extensions>
     <ql:flags>0</ql:flags>
     <ql:activity>0</ql:activity>
    </extensions>
   </trkpt>
   <trkpt lon="5.65285500" lat="50.68287400">
    <extensions>
     <ql:flags>0</ql:flags>
     <ql:activity>0</ql:activity>
    </extensions>
   </trkpt>
   <trkpt lon="5.65261300" lat="50.68285500">
    <extensions>
     <ql:flags>0</ql:flags>
     <ql:activity>0</ql:activity>
    </extensions>
   </trkpt>
   <trkpt lon="5.65170700" lat="50.68309700">
    <extensions>
     <ql:flags>0</ql:flags>
     <ql:activity>0</ql:activity>
    </extensions>
   </trkpt>
   <trkpt lon="5.64998000" lat="50.68360400">
    <extensions>
     <ql:flags>0</ql:flags>
     <ql:activity>0</ql:activity>
    </extensions>
   </trkpt>
   <trkpt lon="5.64986000" lat="50.68360600">
    <extensions>
     <ql:flags>0</ql:flags>
     <ql:activity>0</ql:activity>
    </extensions>
   </trkpt>
   <trkpt lon="5.64972400" lat="50.68355200">
    <extensions>
     <ql:flags>0</ql:flags>
     <ql:activity>0</ql:activity>
    </extensions>
   </trkpt>
   <trkpt lon="5.64952000" lat="50.68338000">
    <extensions>
     <ql:flags>0</ql:flags>
     <ql:activity>0</ql:activity>
    </extensions>
   </trkpt>
   <trkpt lon="5.64926700" lat="50.68297000">
    <extensions>
     <ql:flags>0</ql:flags>
     <ql:activity>0</ql:activity>
    </extensions>
   </trkpt>
   <trkpt lon="5.64877500" lat="50.68229000">
    <extensions>
     <ql:flags>0</ql:flags>
     <ql:activity>0</ql:activity>
    </extensions>
   </trkpt>
   <trkpt lon="5.64862900" lat="50.68213100">
    <extensions>
     <ql:flags>0</ql:flags>
     <ql:activity>0</ql:activity>
    </extensions>
   </trkpt>
   <trkpt lon="5.64830900" lat="50.68169000">
    <extensions>
     <ql:flags>0</ql:flags>
     <ql:activity>0</ql:activity>
    </extensions>
   </trkpt>
   <trkpt lon="5.64816300" lat="50.68152500">
    <extensions>
     <ql:flags>0</ql:flags>
     <ql:activity>0</ql:activity>
    </extensions>
   </trkpt>
   <trkpt lon="5.64793400" lat="50.68117600">
    <extensions>
     <ql:flags>0</ql:flags>
     <ql:activity>0</ql:activity>
    </extensions>
   </trkpt>
   <trkpt lon="5.64699100" lat="50.67995600">
    <extensions>
     <ql:flags>0</ql:flags>
     <ql:activity>0</ql:activity>
    </extensions>
   </trkpt>
   <trkpt lon="5.64692900" lat="50.67972500">
    <extensions>
     <ql:flags>0</ql:flags>
     <ql:activity>0</ql:activity>
    </extensions>
   </trkpt>
   <trkpt lon="5.64690200" lat="50.67945000">
    <extensions>
     <ql:flags>0</ql:flags>
     <ql:activity>0</ql:activity>
    </extensions>
   </trkpt>
   <trkpt lon="5.64655100" lat="50.67890000">
    <extensions>
     <ql:flags>0</ql:flags>
     <ql:activity>0</ql:activity>
    </extensions>
   </trkpt>
   <trkpt lon="5.64642200" lat="50.67848600">
    <extensions>
     <ql:flags>0</ql:flags>
     <ql:activity>0</ql:activity>
    </extensions>
   </trkpt>
   <trkpt lon="5.64625200" lat="50.67819700">
    <extensions>
     <ql:flags>0</ql:flags>
     <ql:activity>0</ql:activity>
    </extensions>
   </trkpt>
   <trkpt lon="5.64527400" lat="50.67693000">
    <extensions>
     <ql:flags>0</ql:flags>
     <ql:activity>0</ql:activity>
    </extensions>
   </trkpt>
   <trkpt lon="5.64506100" lat="50.67673800">
    <extensions>
     <ql:flags>0</ql:flags>
     <ql:activity>0</ql:activity>
    </extensions>
   </trkpt>
   <trkpt lon="5.64475500" lat="50.67670500">
    <extensions>
     <ql:flags>0</ql:flags>
     <ql:activity>0</ql:activity>
    </extensions>
   </trkpt>
   <trkpt lon="5.64459400" lat="50.67658900">
    <extensions>
     <ql:flags>0</ql:flags>
     <ql:activity>0</ql:activity>
    </extensions>
   </trkpt>
   <trkpt lon="5.64437900" lat="50.67629000">
    <extensions>
     <ql:flags>0</ql:flags>
     <ql:activity>0</ql:activity>
    </extensions>
   </trkpt>
   <trkpt lon="5.64402600" lat="50.67572400">
    <extensions>
     <ql:flags>0</ql:flags>
     <ql:activity>0</ql:activity>
    </extensions>
   </trkpt>
   <trkpt lon="5.64372900" lat="50.67516600">
    <extensions>
     <ql:flags>0</ql:flags>
     <ql:activity>0</ql:activity>
    </extensions>
   </trkpt>
   <trkpt lon="5.64345300" lat="50.67451300">
    <extensions>
     <ql:flags>0</ql:flags>
     <ql:activity>0</ql:activity>
    </extensions>
   </trkpt>
   <trkpt lon="5.64299900" lat="50.67322400">
    <extensions>
     <ql:flags>0</ql:flags>
     <ql:activity>0</ql:activity>
    </extensions>
   </trkpt>
   <trkpt lon="5.64274600" lat="50.67214600">
    <extensions>
     <ql:flags>0</ql:flags>
     <ql:activity>0</ql:activity>
    </extensions>
   </trkpt>
   <trkpt lon="5.64269400" lat="50.67170700">
    <extensions>
     <ql:flags>0</ql:flags>
     <ql:activity>0</ql:activity>
    </extensions>
   </trkpt>
   <trkpt lon="5.64263200" lat="50.67153500">
    <extensions>
     <ql:flags>0</ql:flags>
     <ql:activity>0</ql:activity>
    </extensions>
   </trkpt>
   <trkpt lon="5.64252900" lat="50.67078500">
    <extensions>
     <ql:flags>0</ql:flags>
     <ql:activity>0</ql:activity>
    </extensions>
   </trkpt>
   <trkpt lon="5.64251600" lat="50.67047400">
    <extensions>
     <ql:flags>0</ql:flags>
     <ql:activity>0</ql:activity>
    </extensions>
   </trkpt>
   <trkpt lon="5.64242700" lat="50.67004300">
    <extensions>
     <ql:flags>0</ql:flags>
     <ql:activity>0</ql:activity>
    </extensions>
   </trkpt>
   <trkpt lon="5.64241400" lat="50.66982200">
    <extensions>
     <ql:flags>0</ql:flags>
     <ql:activity>0</ql:activity>
    </extensions>
   </trkpt>
   <trkpt lon="5.64221500" lat="50.66912000">
    <extensions>
     <ql:flags>0</ql:flags>
     <ql:activity>0</ql:activity>
    </extensions>
   </trkpt>
   <trkpt lon="5.64198700" lat="50.66853700">
    <extensions>
     <ql:flags>0</ql:flags>
     <ql:activity>0</ql:activity>
    </extensions>
   </trkpt>
   <trkpt lon="5.64148400" lat="50.66772100">
    <extensions>
     <ql:flags>0</ql:flags>
     <ql:activity>0</ql:activity>
    </extensions>
   </trkpt>
   <trkpt lon="5.64084600" lat="50.66692000">
    <extensions>
     <ql:flags>0</ql:flags>
     <ql:activity>0</ql:activity>
    </extensions>
   </trkpt>
   <trkpt lon="5.64040300" lat="50.66643400">
    <extensions>
     <ql:flags>0</ql:flags>
     <ql:activity>0</ql:activity>
    </extensions>
   </trkpt>
   <trkpt lon="5.63900000" lat="50.66502900">
    <extensions>
     <ql:flags>0</ql:flags>
     <ql:activity>0</ql:activity>
    </extensions>
   </trkpt>
   <trkpt lon="5.63888600" lat="50.66483600">
    <extensions>
     <ql:flags>0</ql:flags>
     <ql:activity>0</ql:activity>
    </extensions>
   </trkpt>
   <trkpt lon="5.63889200" lat="50.66481200">
    <extensions>
     <ql:flags>0</ql:flags>
     <ql:activity>0</ql:activity>
    </extensions>
   </trkpt>
   <trkpt lon="5.63903600" lat="50.66475300">
    <extensions>
     <ql:flags>0</ql:flags>
     <ql:activity>0</ql:activity>
    </extensions>
   </trkpt>
   <trkpt lon="5.63911700" lat="50.66469700">
    <extensions>
     <ql:flags>0</ql:flags>
     <ql:activity>0</ql:activity>
    </extensions>
   </trkpt>
   <trkpt lon="5.63931200" lat="50.66464300">
    <extensions>
     <ql:flags>0</ql:flags>
     <ql:activity>0</ql:activity>
    </extensions>
   </trkpt>
   <trkpt lon="5.63932800" lat="50.66462500">
    <extensions>
     <ql:flags>0</ql:flags>
     <ql:activity>0</ql:activity>
    </extensions>
   </trkpt>
   <trkpt lon="5.63913000" lat="50.66445400">
    <extensions>
     <ql:flags>0</ql:flags>
     <ql:activity>0</ql:activity>
    </extensions>
   </trkpt>
   <trkpt lon="5.63878400" lat="50.66408700">
    <extensions>
     <ql:flags>0</ql:flags>
     <ql:activity>0</ql:activity>
    </extensions>
   </trkpt>
   <trkpt lon="5.63844400" lat="50.66378500">
    <extensions>
     <ql:flags>0</ql:flags>
     <ql:activity>0</ql:activity>
    </extensions>
   </trkpt>
   <trkpt lon="5.63835500" lat="50.66367800">
    <extensions>
     <ql:flags>0</ql:flags>
     <ql:activity>0</ql:activity>
    </extensions>
   </trkpt>
   <trkpt lon="5.63839500" lat="50.66360700">
    <extensions>
     <ql:flags>0</ql:flags>
     <ql:activity>0</ql:activity>
    </extensions>
   </trkpt>
   <trkpt lon="5.63850200" lat="50.66357700">
    <extensions>
     <ql:flags>0</ql:flags>
     <ql:activity>0</ql:activity>
    </extensions>
   </trkpt>
   <trkpt lon="5.63855700" lat="50.66358500">
    <extensions>
     <ql:flags>0</ql:flags>
     <ql:activity>0</ql:activity>
    </extensions>
   </trkpt>
   <trkpt lon="5.63863800" lat="50.66364800">
    <extensions>
     <ql:flags>0</ql:flags>
     <ql:activity>0</ql:activity>
    </extensions>
   </trkpt>
   <trkpt lon="5.63893600" lat="50.66398400">
    <extensions>
     <ql:flags>0</ql:flags>
     <ql:activity>0</ql:activity>
    </extensions>
   </trkpt>
   <trkpt lon="5.63942500" lat="50.66443900">
    <extensions>
     <ql:flags>0</ql:flags>
     <ql:activity>0</ql:activity>
    </extensions>
   </trkpt>
   <trkpt lon="5.63979800" lat="50.66470700">
    <extensions>
     <ql:flags>0</ql:flags>
     <ql:activity>0</ql:activity>
    </extensions>
   </trkpt>
   <trkpt lon="5.64014300" lat="50.66500100">
    <extensions>
     <ql:flags>0</ql:flags>
     <ql:activity>0</ql:activity>
    </extensions>
   </trkpt>
   <trkpt lon="5.64022300" lat="50.66509500">
    <extensions>
     <ql:flags>0</ql:flags>
     <ql:activity>0</ql:activity>
    </extensions>
   </trkpt>
   <trkpt lon="5.64034300" lat="50.66517200">
    <extensions>
     <ql:flags>0</ql:flags>
     <ql:activity>0</ql:activity>
    </extensions>
   </trkpt>
   <trkpt lon="5.64047800" lat="50.66532800">
    <extensions>
     <ql:flags>0</ql:flags>
     <ql:activity>0</ql:activity>
    </extensions>
   </trkpt>
   <trkpt lon="5.64092900" lat="50.66569900">
    <extensions>
     <ql:flags>0</ql:flags>
     <ql:activity>0</ql:activity>
    </extensions>
   </trkpt>
   <trkpt lon="5.64103600" lat="50.66573600">
    <extensions>
     <ql:flags>0</ql:flags>
     <ql:activity>0</ql:activity>
    </extensions>
   </trkpt>
   <trkpt lon="5.64116100" lat="50.66574100">
    <extensions>
     <ql:flags>0</ql:flags>
     <ql:activity>0</ql:activity>
    </extensions>
   </trkpt>
   <trkpt lon="5.64139900" lat="50.66568600">
    <extensions>
     <ql:flags>0</ql:flags>
     <ql:activity>0</ql:activity>
    </extensions>
   </trkpt>
   <trkpt lon="5.64159800" lat="50.66557900">
    <extensions>
     <ql:flags>0</ql:flags>
     <ql:activity>0</ql:activity>
    </extensions>
   </trkpt>
   <trkpt lon="5.64190900" lat="50.66533300">
    <extensions>
     <ql:flags>0</ql:flags>
     <ql:activity>0</ql:activity>
    </extensions>
   </trkpt>
   <trkpt lon="5.64203000" lat="50.66518900">
    <extensions>
     <ql:flags>0</ql:flags>
     <ql:activity>0</ql:activity>
    </extensions>
   </trkpt>
   <trkpt lon="5.64223500" lat="50.66481300">
    <extensions>
     <ql:flags>0</ql:flags>
     <ql:activity>0</ql:activity>
    </extensions>
   </trkpt>
   <trkpt lon="5.64238400" lat="50.66445800">
    <extensions>
     <ql:flags>0</ql:flags>
     <ql:activity>0</ql:activity>
    </extensions>
   </trkpt>
   <trkpt lon="5.64256400" lat="50.66414800">
    <extensions>
     <ql:flags>0</ql:flags>
     <ql:activity>0</ql:activity>
    </extensions>
   </trkpt>
   <trkpt lon="5.64271800" lat="50.66397000">
    <extensions>
     <ql:flags>0</ql:flags>
     <ql:activity>0</ql:activity>
    </extensions>
   </trkpt>
   <trkpt lon="5.64283800" lat="50.66377400">
    <extensions>
     <ql:flags>0</ql:flags>
     <ql:activity>0</ql:activity>
    </extensions>
   </trkpt>
   <trkpt lon="5.64292100" lat="50.66371300">
    <extensions>
     <ql:flags>0</ql:flags>
     <ql:activity>0</ql:activity>
    </extensions>
   </trkpt>
   <trkpt lon="5.64324500" lat="50.66368400">
    <extensions>
     <ql:flags>0</ql:flags>
     <ql:activity>0</ql:activity>
    </extensions>
   </trkpt>
   <trkpt lon="5.64338100" lat="50.66352400">
    <extensions>
     <ql:flags>0</ql:flags>
     <ql:activity>0</ql:activity>
    </extensions>
   </trkpt>
   <trkpt lon="5.64368200" lat="50.66302600">
    <extensions>
     <ql:flags>0</ql:flags>
     <ql:activity>0</ql:activity>
    </extensions>
   </trkpt>
   <trkpt lon="5.64420800" lat="50.66262500">
    <extensions>
     <ql:flags>0</ql:flags>
     <ql:activity>0</ql:activity>
    </extensions>
   </trkpt>
   <trkpt lon="5.64432600" lat="50.66243000">
    <extensions>
     <ql:flags>0</ql:flags>
     <ql:activity>0</ql:activity>
    </extensions>
   </trkpt>
   <trkpt lon="5.64441600" lat="50.66233300">
    <extensions>
     <ql:flags>0</ql:flags>
     <ql:activity>0</ql:activity>
    </extensions>
   </trkpt>
   <trkpt lon="5.64463600" lat="50.66195300">
    <extensions>
     <ql:flags>0</ql:flags>
     <ql:activity>0</ql:activity>
    </extensions>
   </trkpt>
   <trkpt lon="5.64496600" lat="50.66096200">
    <extensions>
     <ql:flags>0</ql:flags>
     <ql:activity>0</ql:activity>
    </extensions>
   </trkpt>
   <trkpt lon="5.64501300" lat="50.66045800">
    <extensions>
     <ql:flags>0</ql:flags>
     <ql:activity>0</ql:activity>
    </extensions>
   </trkpt>
   <trkpt lon="5.64504300" lat="50.65954800">
    <extensions>
     <ql:flags>0</ql:flags>
     <ql:activity>0</ql:activity>
    </extensions>
   </trkpt>
   <trkpt lon="5.64481200" lat="50.65842700">
    <extensions>
     <ql:flags>0</ql:flags>
     <ql:activity>0</ql:activity>
    </extensions>
   </trkpt>
   <trkpt lon="5.64470900" lat="50.65811500">
    <extensions>
     <ql:flags>0</ql:flags>
     <ql:activity>0</ql:activity>
    </extensions>
   </trkpt>
   <trkpt lon="5.64445600" lat="50.65763600">
    <extensions>
     <ql:flags>0</ql:flags>
     <ql:activity>0</ql:activity>
    </extensions>
   </trkpt>
   <trkpt lon="5.64442000" lat="50.65752000">
    <extensions>
     <ql:flags>0</ql:flags>
     <ql:activity>0</ql:activity>
    </extensions>
   </trkpt>
   <trkpt lon="5.64406900" lat="50.65685700">
    <extensions>
     <ql:flags>0</ql:flags>
     <ql:activity>0</ql:activity>
    </extensions>
   </trkpt>
   <trkpt lon="5.64387000" lat="50.65657700">
    <extensions>
     <ql:flags>0</ql:flags>
     <ql:activity>0</ql:activity>
    </extensions>
   </trkpt>
   <trkpt lon="5.64345100" lat="50.65613700">
    <extensions>
     <ql:flags>0</ql:flags>
     <ql:activity>0</ql:activity>
    </extensions>
   </trkpt>
   <trkpt lon="5.64314400" lat="50.65574100">
    <extensions>
     <ql:flags>0</ql:flags>
     <ql:activity>0</ql:activity>
    </extensions>
   </trkpt>
   <trkpt lon="5.64285500" lat="50.65546600">
    <extensions>
     <ql:flags>0</ql:flags>
     <ql:activity>0</ql:activity>
    </extensions>
   </trkpt>
   <trkpt lon="5.64232200" lat="50.65506700">
    <extensions>
     <ql:flags>0</ql:flags>
     <ql:activity>0</ql:activity>
    </extensions>
   </trkpt>
   <trkpt lon="5.64202900" lat="50.65482000">
    <extensions>
     <ql:flags>0</ql:flags>
     <ql:activity>0</ql:activity>
    </extensions>
   </trkpt>
   <trkpt lon="5.64160000" lat="50.65453800">
    <extensions>
     <ql:flags>0</ql:flags>
     <ql:activity>0</ql:activity>
    </extensions>
   </trkpt>
   <trkpt lon="5.64070900" lat="50.65406800">
    <extensions>
     <ql:flags>0</ql:flags>
     <ql:activity>0</ql:activity>
    </extensions>
   </trkpt>
   <trkpt lon="5.63991300" lat="50.65367900">
    <extensions>
     <ql:flags>0</ql:flags>
     <ql:activity>0</ql:activity>
    </extensions>
   </trkpt>
   <trkpt lon="5.63979700" lat="50.65364000">
    <extensions>
     <ql:flags>0</ql:flags>
     <ql:activity>0</ql:activity>
    </extensions>
   </trkpt>
   <trkpt lon="5.63953800" lat="50.65360900">
    <extensions>
     <ql:flags>0</ql:flags>
     <ql:activity>0</ql:activity>
    </extensions>
   </trkpt>
   <trkpt lon="5.63941100" lat="50.65362300">
    <extensions>
     <ql:flags>0</ql:flags>
     <ql:activity>0</ql:activity>
    </extensions>
   </trkpt>
   <trkpt lon="5.63877200" lat="50.65379800">
    <extensions>
     <ql:flags>0</ql:flags>
     <ql:activity>0</ql:activity>
    </extensions>
   </trkpt>
   <trkpt lon="5.63809500" lat="50.65393700">
    <extensions>
     <ql:flags>0</ql:flags>
     <ql:activity>0</ql:activity>
    </extensions>
   </trkpt>
   <trkpt lon="5.63770200" lat="50.65395300">
    <extensions>
     <ql:flags>0</ql:flags>
     <ql:activity>0</ql:activity>
    </extensions>
   </trkpt>
   <trkpt lon="5.63717300" lat="50.65401900">
    <extensions>
     <ql:flags>0</ql:flags>
     <ql:activity>0</ql:activity>
    </extensions>
   </trkpt>
   <trkpt lon="5.63657300" lat="50.65405900">
    <extensions>
     <ql:flags>0</ql:flags>
     <ql:activity>0</ql:activity>
    </extensions>
   </trkpt>
   <trkpt lon="5.63644600" lat="50.65403000">
    <extensions>
     <ql:flags>0</ql:flags>
     <ql:activity>0</ql:activity>
    </extensions>
   </trkpt>
   <trkpt lon="5.63607800" lat="50.65386400">
    <extensions>
     <ql:flags>0</ql:flags>
     <ql:activity>0</ql:activity>
    </extensions>
   </trkpt>
   <trkpt lon="5.63572400" lat="50.65379300">
    <extensions>
     <ql:flags>0</ql:flags>
     <ql:activity>0</ql:activity>
    </extensions>
   </trkpt>
   <trkpt lon="5.63549300" lat="50.65376900">
    <extensions>
     <ql:flags>0</ql:flags>
     <ql:activity>0</ql:activity>
    </extensions>
   </trkpt>
   <trkpt lon="5.63499500" lat="50.65375300">
    <extensions>
     <ql:flags>0</ql:flags>
     <ql:activity>0</ql:activity>
    </extensions>
   </trkpt>
   <trkpt lon="5.63360100" lat="50.65375500">
    <extensions>
     <ql:flags>0</ql:flags>
     <ql:activity>0</ql:activity>
    </extensions>
   </trkpt>
   <trkpt lon="5.63174200" lat="50.65384600">
    <extensions>
     <ql:flags>0</ql:flags>
     <ql:activity>0</ql:activity>
    </extensions>
   </trkpt>
   <trkpt lon="5.63130200" lat="50.65388500">
    <extensions>
     <ql:flags>0</ql:flags>
     <ql:activity>0</ql:activity>
    </extensions>
   </trkpt>
   <trkpt lon="5.63048600" lat="50.65391000">
    <extensions>
     <ql:flags>0</ql:flags>
     <ql:activity>0</ql:activity>
    </extensions>
   </trkpt>
   <trkpt lon="5.62925400" lat="50.65402200">
    <extensions>
     <ql:flags>0</ql:flags>
     <ql:activity>0</ql:activity>
    </extensions>
   </trkpt>
   <trkpt lon="5.62882000" lat="50.65402900">
    <extensions>
     <ql:flags>0</ql:flags>
     <ql:activity>0</ql:activity>
    </extensions>
   </trkpt>
   <trkpt lon="5.62800400" lat="50.65408900">
    <extensions>
     <ql:flags>0</ql:flags>
     <ql:activity>0</ql:activity>
    </extensions>
   </trkpt>
   <trkpt lon="5.62770000" lat="50.65409400">
    <extensions>
     <ql:flags>0</ql:flags>
     <ql:activity>0</ql:activity>
    </extensions>
   </trkpt>
   <trkpt lon="5.62751100" lat="50.65413100">
    <extensions>
     <ql:flags>0</ql:flags>
     <ql:activity>0</ql:activity>
    </extensions>
   </trkpt>
   <trkpt lon="5.62713800" lat="50.65416100">
    <extensions>
     <ql:flags>0</ql:flags>
     <ql:activity>0</ql:activity>
    </extensions>
   </trkpt>
   <trkpt lon="5.62695700" lat="50.65415200">
    <extensions>
     <ql:flags>0</ql:flags>
     <ql:activity>0</ql:activity>
    </extensions>
   </trkpt>
   <trkpt lon="5.62626400" lat="50.65419000">
    <extensions>
     <ql:flags>0</ql:flags>
     <ql:activity>0</ql:activity>
    </extensions>
   </trkpt>
   <trkpt lon="5.62583000" lat="50.65415800">
    <extensions>
     <ql:flags>0</ql:flags>
     <ql:activity>0</ql:activity>
    </extensions>
   </trkpt>
   <trkpt lon="5.62539300" lat="50.65408200">
    <extensions>
     <ql:flags>0</ql:flags>
     <ql:activity>0</ql:activity>
    </extensions>
   </trkpt>
   <trkpt lon="5.62488600" lat="50.65394900">
    <extensions>
     <ql:flags>0</ql:flags>
     <ql:activity>0</ql:activity>
    </extensions>
   </trkpt>
   <trkpt lon="5.62446700" lat="50.65386900">
    <extensions>
     <ql:flags>0</ql:flags>
     <ql:activity>0</ql:activity>
    </extensions>
   </trkpt>
   <trkpt lon="5.62400700" lat="50.65375700">
    <extensions>
     <ql:flags>0</ql:flags>
     <ql:activity>0</ql:activity>
    </extensions>
   </trkpt>
   <trkpt lon="5.62392500" lat="50.65370600">
    <extensions>
     <ql:flags>0</ql:flags>
     <ql:activity>0</ql:activity>
    </extensions>
   </trkpt>
   <trkpt lon="5.62371700" lat="50.65345800">
    <extensions>
     <ql:flags>0</ql:flags>
     <ql:activity>0</ql:activity>
    </extensions>
   </trkpt>
   <trkpt lon="5.62362100" lat="50.65339400">
    <extensions>
     <ql:flags>0</ql:flags>
     <ql:activity>0</ql:activity>
    </extensions>
   </trkpt>
   <trkpt lon="5.62344000" lat="50.65332200">
    <extensions>
     <ql:flags>0</ql:flags>
     <ql:activity>0</ql:activity>
    </extensions>
   </trkpt>
   <trkpt lon="5.62311200" lat="50.65328500">
    <extensions>
     <ql:flags>0</ql:flags>
     <ql:activity>0</ql:activity>
    </extensions>
   </trkpt>
   <trkpt lon="5.62269300" lat="50.65328000">
    <extensions>
     <ql:flags>0</ql:flags>
     <ql:activity>0</ql:activity>
    </extensions>
   </trkpt>
   <trkpt lon="5.62209000" lat="50.65333600">
    <extensions>
     <ql:flags>0</ql:flags>
     <ql:activity>0</ql:activity>
    </extensions>
   </trkpt>
   <trkpt lon="5.62151600" lat="50.65342500">
    <extensions>
     <ql:flags>0</ql:flags>
     <ql:activity>0</ql:activity>
    </extensions>
   </trkpt>
   <trkpt lon="5.62127200" lat="50.65344500">
    <extensions>
     <ql:flags>0</ql:flags>
     <ql:activity>0</ql:activity>
    </extensions>
   </trkpt>
   <trkpt lon="5.62009200" lat="50.65347200">
    <extensions>
     <ql:flags>0</ql:flags>
     <ql:activity>0</ql:activity>
    </extensions>
   </trkpt>
   <trkpt lon="5.61961300" lat="50.65345000">
    <extensions>
     <ql:flags>0</ql:flags>
     <ql:activity>0</ql:activity>
    </extensions>
   </trkpt>
   <trkpt lon="5.61947400" lat="50.65345900">
    <extensions>
     <ql:flags>0</ql:flags>
     <ql:activity>0</ql:activity>
    </extensions>
   </trkpt>
   <trkpt lon="5.61938000" lat="50.65350700">
    <extensions>
     <ql:flags>0</ql:flags>
     <ql:activity>0</ql:activity>
    </extensions>
   </trkpt>
   <trkpt lon="5.61940800" lat="50.65357000">
    <extensions>
     <ql:flags>0</ql:flags>
     <ql:activity>0</ql:activity>
    </extensions>
   </trkpt>
   <trkpt lon="5.61994900" lat="50.65368300">
    <extensions>
     <ql:flags>0</ql:flags>
     <ql:activity>0</ql:activity>
    </extensions>
   </trkpt>
   <trkpt lon="5.62022800" lat="50.65377100">
    <extensions>
     <ql:flags>0</ql:flags>
     <ql:activity>0</ql:activity>
    </extensions>
   </trkpt>
   <trkpt lon="5.62080900" lat="50.65388800">
    <extensions>
     <ql:flags>0</ql:flags>
     <ql:activity>0</ql:activity>
    </extensions>
   </trkpt>
   <trkpt lon="5.62105500" lat="50.65396700">
    <extensions>
     <ql:flags>0</ql:flags>
     <ql:activity>0</ql:activity>
    </extensions>
   </trkpt>
   <trkpt lon="5.62131300" lat="50.65402100">
    <extensions>
     <ql:flags>0</ql:flags>
     <ql:activity>0</ql:activity>
    </extensions>
   </trkpt>
   <trkpt lon="5.62144600" lat="50.65403000">
    <extensions>
     <ql:flags>0</ql:flags>
     <ql:activity>0</ql:activity>
    </extensions>
   </trkpt>
   <trkpt lon="5.62156900" lat="50.65399200">
    <extensions>
     <ql:flags>0</ql:flags>
     <ql:activity>0</ql:activity>
    </extensions>
   </trkpt>
   <trkpt lon="5.62159200" lat="50.65396400">
    <extensions>
     <ql:flags>0</ql:flags>
     <ql:activity>0</ql:activity>
    </extensions>
   </trkpt>
   <trkpt lon="5.62156500" lat="50.65393700">
    <extensions>
     <ql:flags>0</ql:flags>
     <ql:activity>0</ql:activity>
    </extensions>
   </trkpt>
   <trkpt lon="5.62131200" lat="50.65386300">
    <extensions>
     <ql:flags>16</ql:flags>
     <ql:activity>0</ql:activity>
    </extensions>
   </trkpt>
  </trkseg>
 </trk>
 <extensions>
  <ql:key>516fae192a4b7f942c9ee9fa3ce11432</ql:key>
  <ql:sortingRoadbook>0</ql:sortingRoadbook>
  <ql:sortingFolder>0</ql:sortingFolder>
  <ql:correlation>1</ql:correlation>
  <ql:invalidDataOk>0</ql:invalidDataOk>
 </extensions>
</gpx>
